     2.100          NAVIGATION                              RINEX VERSION / TYPE
fic2rin                                 07/10/2009 01:37:36 PGM / RUN BY / DATE
                                                            END OF HEADER
 3 09  7  9 10  0  0.0  .417641364038D-03  .522959453519D-11  .000000000000D+00
     .580000000000D+02 -.481250000000D+01  .517735851491D-08  .405950032740D+00
    -.230967998505D-06  .120308315381D-01  .958889722824D-05  .515364086151D+04
     .381600000000D+06 -.117346644402D-06 -.231112765737D+01  .162050127983D-06
     .926419838202D+00  .179406250000D+03  .911280616873D+00 -.837784897104D-08
     .494663461862D-09  .100000000000D+01  .153900000000D+04  .000000000000D+00
     .240000000000D+01  .000000000000D+00 -.419095158577D-08  .580000000000D+02
     .374406000000D+06  .400000000000D+01
 4 09  7  9 10  0  0.0 -.167243182659D-03 -.163709046319D-10  .000000000000D+00
     .500000000000D+01 -.365625000000D+01  .549915763342D-08 -.270518173036D+01
    -.359490513802D-06  .860939908307D-02  .482425093651D-05  .515375892830D+04
     .381600000000D+06 -.521540641785D-07 -.114420452288D+01 -.214204192162D-06
     .939874974571D+00  .279000000000D+03  .493132749781D+00 -.835356224511D-08
     .417874549009D-10  .100000000000D+01  .153900000000D+04  .000000000000D+00
     .240000000000D+01  .000000000000D+00 -.605359673500D-08  .261000000000D+03
     .374406000000D+06  .400000000000D+01
 6 09  7  9 10  0  0.0  .187055673450D-03  .114823706099D-10  .000000000000D+00
     .440000000000D+02  .100000000000D+01  .494449167221D-08  .280843069798D+01
    -.782310962677D-07  .598135741893D-02  .949390232563D-05  .515370331192D+04
     .381600000000D+06  .143423676491D-06 -.224318820131D+01  .000000000000D+00
     .933824048423D+00  .180312500000D+03 -.131975093708D+01 -.803712049261D-08
     .573952478853D-09  .100000000000D+01  .153900000000D+04  .000000000000D+00
     .240000000000D+01  .000000000000D+00 -.465661287308D-08  .440000000000D+02
     .374406000000D+06  .400000000000D+01
 7 09  7  9 10  0  0.0  .155675224960D-04 -.682121026330D-12  .000000000000D+00
     .950000000000D+02 -.132812500000D+02  .443804200512D-08 -.964973225774D+00
    -.683590769768D-06  .281037320383D-02  .154599547386D-05  .515366119766D+04
     .381600000000D+06 -.428408384323D-07  .199312886081D+01 -.968575477600D-07
     .967737788380D+00  .355750000000D+03  .287824729298D+01 -.825784397235D-08
    -.138220043134D-09  .100000000000D+01  .153900000000D+04  .000000000000D+00
     .240000000000D+01  .000000000000D+00 -.107102096081D-07  .950000000000D+02
     .374406000000D+06  .400000000000D+01
 8 09  7  9 10  0  0.0 -.211054459214D-03 -.170530256582D-11  .000000000000D+00
     .240000000000D+02 -.258750000000D+02  .400659546221D-08 -.169118396341D+01
    -.137090682983D-05  .107077392749D-01  .174716114998D-05  .515363639641D+04
     .381600000000D+06 -.521540641785D-07  .205439324403D+01 -.121071934700D-06
     .988970923706D+00  .361187500000D+03  .299674562648D+01 -.806069290307D-08
    -.360729311538D-10  .100000000000D+01  .153900000000D+04  .000000000000D+00
     .240000000000D+01  .000000000000D+00 -.372529029846D-08  .240000000000D+02
     .374406000000D+06  .400000000000D+01
 9 09  7  9 10  0  0.0  .655371695757D-04  .204636307899D-11  .000000000000D+00
     .127000000000D+03 -.117187500000D+02  .421410410578D-08 -.193511674783D+01
    -.277534127235D-06  .207397391787D-01  .433996319771D-06  .515363332367D+04
     .381600000000D+06  .350177288055D-06  .195940460386D+01  .195577740669D-06
     .976622397089D+00  .378093750000D+03  .149140382408D+01 -.803426323074D-08
    -.131434046184D-09  .100000000000D+01  .153900000000D+04  .000000000000D+00
     .340000000000D+01  .000000000000D+00 -.558793544769D-08  .127000000000D+03
     .374406000000D+06  .400000000000D+01
10 09  7  9 10  0  0.0 -.188732519746D-04 -.682121026330D-12  .000000000000D+00
     .144000000000D+03  .117812500000D+02  .465519390751D-08  .168530617508D+01
     .745058059692D-06  .856214202940D-02  .103991478682D-04  .515363357925D+04
     .381600000000D+06 -.188127160072D-06 -.780025579196D-01  .163912773132D-06
     .958033614928D+00  .180937500000D+03  .625102264944D+00 -.794961684774D-08
    -.476448417418D-09  .100000000000D+01  .153900000000D+04  .000000000000D+00
     .240000000000D+01  .000000000000D+00 -.279396772385D-08  .144000000000D+03
     .374406000000D+06  .400000000000D+01
11 09  7  9 10  0  0.0 -.986689701676D-05 -.147792889038D-11  .000000000000D+00
     .480000000000D+02  .140625000000D+02  .665099132620D-08 -.114946284294D+01
     .866129994392D-06  .947675597854D-02  .399909913540D-05  .515368133736D+04
     .381600000000D+06  .204890966415D-06 -.136489555765D+01  .391155481339D-07
     .888809700709D+00  .259031250000D+03  .704062827934D+00 -.905716298148D-08
     .291797868838D-09  .100000000000D+01  .153900000000D+04  .000000000000D+00
     .240000000000D+01  .000000000000D+00 -.116415321827D-07  .480000000000D+02
     .374406000000D+06  .400000000000D+01
12 09  7  9 10  0  0.0 -.253564212471D-03  .625277607469D-11  .000000000000D+00
     .780000000000D+02 -.119656250000D+03  .393194949576D-08 -.978725722186D+00
    -.614300370216D-05  .324627617374D-02  .900775194168D-05  .515363324356D+04
     .381600000000D+06 -.141561031342D-06  .304546935952D+01  .558793544769D-08
     .967828654611D+00  .210062500000D+03 -.650968745633D+00 -.779639617977D-08
    -.106433004790D-09  .100000000000D+01  .153900000000D+04  .000000000000D+00
     .240000000000D+01  .000000000000D+00 -.116415321827D-07  .780000000000D+02
     .374406000000D+06  .400000000000D+01
13 09  7  9 10  0  0.0  .301060266793D-03  .682121026330D-12  .000000000000D+00
     .360000000000D+02  .104906250000D+03  .365515225176D-08  .131316280401D+01
     .518560409546D-05  .415046187118D-02  .709667801857D-05  .515368691063D+04
     .381600000000D+06 -.689178705215D-07  .100382988212D+01 -.931322574615D-07
     .994749002466D+00  .260156250000D+03  .161796348135D+01 -.766889086866D-08
     .728601777760D-10  .100000000000D+01  .153900000000D+04  .000000000000D+00
     .240000000000D+01  .000000000000D+00 -.111758708954D-07  .360000000000D+02
     .374406000000D+06  .400000000000D+01
14 09  7  9 10  0  0.0 -.826716423035D-04  .568434188608D-11  .000000000000D+00
     .300000000000D+02  .120312500000D+03  .383230248792D-08  .123555011815D+01
     .628829002380D-05  .458746519871D-02  .775605440140D-05  .515362712669D+04
     .381600000000D+06 -.726431608200D-07  .984055735471D+00  .651925802231D-07
     .988240848587D+00  .247000000000D+03 -.216749607234D+01 -.784175521201D-08
     .996470078407D-10  .100000000000D+01  .153900000000D+04  .000000000000D+00
     .240000000000D+01  .000000000000D+00 -.931322574615D-08  .300000000000D+02
     .374406000000D+06  .400000000000D+01
15 09  7  9 10  0  0.0 -.307118054479D-03 -.261479726760D-11  .000000000000D+00
     .390000000000D+02  .117781250000D+03  .458519099161D-08  .140277749216D+01
     .619702041149D-05  .146952725481D-02  .709109008312D-05  .515363764954D+04
     .381600000000D+06  .353902578354D-07  .930236671931D+00 -.242143869400D-07
     .956248648600D+00  .235031250000D+03 -.474195787266D+00 -.811998108695D-08
     .210723063176D-10  .100000000000D+01  .153900000000D+04  .000000000000D+00
     .240000000000D+01  .000000000000D+00 -.977888703346D-08  .390000000000D+02
     .374406000000D+06  .400000000000D+01
16 09  7  9 10  0  0.0  .344873405993D-04 -.352429196937D-11  .000000000000D+00
     .700000000000D+02 -.121281250000D+03  .394302138552D-08  .287439164364D+01
    -.622123479843D-05  .533866602927D-02  .852905213833D-05  .515358769035D+04
     .381600000000D+06  .353902578354D-07  .306246976960D+01  .167638063431D-07
     .969256687946D+00  .220437500000D+03 -.319617404228D+00 -.777175229611D-08
    -.158578033983D-09  .100000000000D+01  .153900000000D+04  .000000000000D+00
     .240000000000D+01  .000000000000D+00 -.977888703346D-08  .700000000000D+02
     .374406000000D+06  .400000000000D+01
17 09  7  9 10  0  0.0  .693066976964D-04  .238742359215D-11  .000000000000D+00
     .860000000000D+02  .887500000000D+01  .443232748137D-08  .174998716398D+01
     .432133674622D-06  .457323843148D-02  .922940671444D-05  .515370602798D+04
     .381600000000D+06 -.100582838058D-06 -.217872541689D+01  .298023223877D-07
     .959677248741D+00  .195750000000D+03 -.263227148787D+01 -.790747223510D-08
     .575381109790D-09  .100000000000D+01  .153900000000D+04  .000000000000D+00
     .240000000000D+01  .000000000000D+00 -.102445483208D-07  .860000000000D+02
     .374406000000D+06  .400000000000D+01
18 09  7  9 10  0  0.0 -.414778478444D-04  .318323145621D-11  .000000000000D+00
     .380000000000D+02  .106250000000D+02  .483948729836D-08  .306893942825D+01
     .461935997009D-06  .106548619224D-01  .105611979961D-04  .515361186981D+04
     .381600000000D+06 -.577419996262D-07 -.731967462183D-01 -.216066837311D-06
     .942067477692D+00  .164593750000D+03 -.240814335633D+01 -.786925635754D-08
    -.551808699333D-09  .100000000000D+01  .153900000000D+04  .000000000000D+00
     .240000000000D+01  .000000000000D+00 -.107102096081D-07  .380000000000D+02
     .374406000000D+06  .400000000000D+01
19 09  7  9 10  0  0.0  .196974724531D-04 -.136424205266D-11  .000000000000D+00
     .600000000000D+02  .343750000000D+01  .453304596242D-08  .114337986572D+01
     .232830643654D-06  .573297007941D-02  .881217420101D-05  .515362547493D+04
     .381600000000D+06  .126659870148D-06 -.212279461208D+01  .540167093277D-07
     .957332081341D+00  .208125000000D+03 -.331564057008D+00 -.789425739894D-08
     .568237955106D-09  .100000000000D+01  .153900000000D+04  .000000000000D+00
     .240000000000D+01  .000000000000D+00 -.144354999065D-07  .600000000000D+02
     .374406000000D+06  .400000000000D+01
